CCSDS_OMM_VERS = 2.0
CREATION_DATE  = 
ORIGINATOR     = 

OBJECT_NAME    = SOYUZ-MS 28
OBJECT_ID      = 2025-275A
CENTER_NAME    = EARTH
REF_FRAME      = TEME
TIME_SYSTEM    = UTC
MEAN_ELEMENT_THEORY = SGP/SGP4

EPOCH          = 2026-01-07T09:40:53.937984
MEAN_MOTION    = 15.49153097
ECCENTRICITY   = .0007618
INCLINATION    = 51.6331
RA_OF_ASC_NODE = 15.4118
ARG_OF_PERICENTER = 351.0107
MEAN_ANOMALY   = 9.0743

EPHEMERIS_TYPE = 0
CLASSIFICATION_TYPE = U
NORAD_CAT_ID   = 66664
ELEMENT_SET_NO = 999
REV_AT_EPOCH   = 54683
BSTAR          = .16139E-3
MEAN_MOTION_DOT = .8503E-4
MEAN_MOTION_DDOT = 0

CCSDS_OMM_VERS = 2.0
CREATION_DATE  = 
ORIGINATOR     = 

OBJECT_NAME    = 1998-067XS
OBJECT_ID      = 1998-067XS
CENTER_NAME    = EARTH
REF_FRAME      = TEME
TIME_SYSTEM    = UTC
MEAN_ELEMENT_THEORY = SGP/SGP4

EPOCH          = 2026-01-07T07:17:28.164480
MEAN_MOTION    = 15.52093903
ECCENTRICITY   = .0002381
INCLINATION    = 51.6319
RA_OF_ASC_NODE = 15.4987
ARG_OF_PERICENTER = 337.5853
MEAN_ANOMALY   = 22.5032

EPHEMERIS_TYPE = 0
CLASSIFICATION_TYPE = U
NORAD_CAT_ID   = 66906
ELEMENT_SET_NO = 999
REV_AT_EPOCH   = 558
BSTAR          = .39031E-3
MEAN_MOTION_DOT = .23607E-3
MEAN_MOTION_DDOT = 0

CCSDS_OMM_VERS = 2.0
CREATION_DATE  = 
ORIGINATOR     = 

OBJECT_NAME    = 1998-067XT
OBJECT_ID      = 1998-067XT
CENTER_NAME    = EARTH
REF_FRAME      = TEME
TIME_SYSTEM    = UTC
MEAN_ELEMENT_THEORY = SGP/SGP4

EPOCH          = 2026-01-07T04:56:15.477216
MEAN_MOTION    = 15.55283383
ECCENTRICITY   = .0003845
INCLINATION    = 51.6319
RA_OF_ASC_NODE = 15.5942
ARG_OF_PERICENTER = 22.2958
MEAN_ANOMALY   = 337.8199

EPHEMERIS_TYPE = 0
CLASSIFICATION_TYPE = U
NORAD_CAT_ID   = 66907
ELEMENT_SET_NO = 999
REV_AT_EPOCH   = 557
BSTAR          = .95275E-3
MEAN_MOTION_DOT = .65869E-3
MEAN_MOTION_DDOT = 0

CCSDS_OMM_VERS = 2.0
CREATION_DATE  = 
ORIGINATOR     = 

OBJECT_NAME    = 1998-067XU
OBJECT_ID      = 1998-067XU
CENTER_NAME    = EARTH
REF_FRAME      = TEME
TIME_SYSTEM    = UTC
MEAN_ELEMENT_THEORY = SGP/SGP4

EPOCH          = 2026-01-07T04:54:45.278208
MEAN_MOTION    = 15.55280476
ECCENTRICITY   = .0003807
INCLINATION    = 51.6309
RA_OF_ASC_NODE = 15.5857
ARG_OF_PERICENTER = 17.5939
MEAN_ANOMALY   = 342.5184

EPHEMERIS_TYPE = 0
CLASSIFICATION_TYPE = U
NORAD_CAT_ID   = 66908
ELEMENT_SET_NO = 999
REV_AT_EPOCH   = 557
BSTAR          = .97528E-3
MEAN_MOTION_DOT = .67445E-3
MEAN_MOTION_DDOT = 0

CCSDS_OMM_VERS = 2.0
CREATION_DATE  = 
ORIGINATOR     = 

OBJECT_NAME    = SILVERSAT
OBJECT_ID      = 1998-067XV
CENTER_NAME    = EARTH
REF_FRAME      = TEME
TIME_SYSTEM    = UTC
MEAN_ELEMENT_THEORY = SGP/SGP4

EPOCH          = 2026-01-07T09:24:33.728256
MEAN_MOTION    = 15.55873722
ECCENTRICITY   = .0003969
INCLINATION    = 51.6312
RA_OF_ASC_NODE = 14.5874
ARG_OF_PERICENTER = 27.4947
MEAN_ANOMALY   = 332.6254

EPHEMERIS_TYPE = 0
CLASSIFICATION_TYPE = U
NORAD_CAT_ID   = 66909
ELEMENT_SET_NO = 999
REV_AT_EPOCH   = 560
BSTAR          = .10494E-2
MEAN_MOTION_DOT = .74288E-3
MEAN_MOTION_DDOT = 0

CCSDS_OMM_VERS = 2.0
CREATION_DATE  = 
ORIGINATOR     = 

OBJECT_NAME    = 1998-067XW
OBJECT_ID      = 1998-067XW
CENTER_NAME    = EARTH
REF_FRAME      = TEME
TIME_SYSTEM    = UTC
MEAN_ELEMENT_THEORY = SGP/SGP4

EPOCH          = 2026-01-07T09:24:27.581760
MEAN_MOTION    = 15.55592219
ECCENTRICITY   = .0002955
INCLINATION    = 51.6301
RA_OF_ASC_NODE = 14.5857
ARG_OF_PERICENTER = 0.6748
MEAN_ANOMALY   = 359.4247

EPHEMERIS_TYPE = 0
CLASSIFICATION_TYPE = U
NORAD_CAT_ID   = 66910
ELEMENT_SET_NO = 999
REV_AT_EPOCH   = 560
BSTAR          = .99036E-3
MEAN_MOTION_DOT = .693E-3
MEAN_MOTION_DDOT = 0

CCSDS_OMM_VERS = 2.0
CREATION_DATE  = 
ORIGINATOR     = 

OBJECT_NAME    = 1998-067XX
OBJECT_ID      = 1998-067XX
CENTER_NAME    = EARTH
REF_FRAME      = TEME
TIME_SYSTEM    = UTC
MEAN_ELEMENT_THEORY = SGP/SGP4

EPOCH          = 2026-01-07T07:37:18.710688
MEAN_MOTION    = 15.56528625
ECCENTRICITY   = .0002964
INCLINATION    = 51.6305
RA_OF_ASC_NODE = 14.8395
ARG_OF_PERICENTER = 16.2713
MEAN_ANOMALY   = 343.8374

EPHEMERIS_TYPE = 0
CLASSIFICATION_TYPE = U
NORAD_CAT_ID   = 66911
ELEMENT_SET_NO = 999
REV_AT_EPOCH   = 558
BSTAR          = .11112E-2
MEAN_MOTION_DOT = .80691E-3
MEAN_MOTION_DDOT = 0

CCSDS_OMM_VERS = 2.0
CREATION_DATE  = 
ORIGINATOR     = 

OBJECT_NAME    = 1998-067XY
OBJECT_ID      = 1998-067XY
CENTER_NAME    = EARTH
REF_FRAME      = TEME
TIME_SYSTEM    = UTC
MEAN_ELEMENT_THEORY = SGP/SGP4

EPOCH          = 2026-01-07T09:51:43.422336
MEAN_MOTION    = 15.54137408
ECCENTRICITY   = .0003622
INCLINATION    = 51.6319
RA_OF_ASC_NODE = 14.7131
ARG_OF_PERICENTER = 8.5951
MEAN_ANOMALY   = 351.5101

EPHEMERIS_TYPE = 0
CLASSIFICATION_TYPE = U
NORAD_CAT_ID   = 66912
ELEMENT_SET_NO = 999
REV_AT_EPOCH   = 559
BSTAR          = .7802E-3
MEAN_MOTION_DOT = .51528E-3
MEAN_MOTION_DDOT = 0

