SOYUZ-MS 28             
1 66664U 25275A   26007.40340206  .00008503  00000+0  16139-3 0  9991
2 66664  51.6331  15.4118 0007618 351.0107   9.0743 15.49153097546831
1998-067XS              
1 66906U 98067XS  26007.30379820  .00023607  00000+0  39031-3 0  9990
2 66906  51.6319  15.4987 0002381 337.5853  22.5032 15.52093903  5585
1998-067XT              
1 66907U 98067XT  26007.20573469  .00065869  00000+0  95275-3 0  9993
2 66907  51.6319  15.5942 0003845  22.2958 337.8199 15.55283383  5579
1998-067XU              
1 66908U 98067XU  26007.20469072  .00067445  00000+0  97528-3 0  9993
2 66908  51.6309  15.5857 0003807  17.5939 342.5184 15.55280476  5575
SILVERSAT               
1 66909U 98067XV  26007.39205704  .00074288  00000+0  10494-2 0  9993
2 66909  51.6312  14.5874 0003969  27.4947 332.6254 15.55873722  5600
1998-067XW              
1 66910U 98067XW  26007.39198590  .00069300  00000+0  99036-3 0  9998
2 66910  51.6301  14.5857 0002955   0.6748 359.4247 15.55592219  5605
1998-067XX              
1 66911U 98067XX  26007.31757767  .00080691  00000+0  11112-2 0  9992
2 66911  51.6305  14.8395 0002964  16.2713 343.8374 15.56528625  5581
1998-067XY              
1 66912U 98067XY  26007.41091924  .00051528  00000+0  78020-3 0  9999
2 66912  51.6319  14.7131 0003622   8.5951 351.5101 15.54137408  5592
